{
  "type": "FeatureCollection",
  "features": [
    {
      "type": "Feature",
      "properties": {
        "norad_id": 66566,
        "name": "STARLINK-35871",
        "group": "last-30-days",
        "lat": 0.9424452897907488,
        "lon": 179.96858065292278,
        "alt_km": 342.3488464270313,
        "timestamp": "2025-12-02T23:34:14.291732+00:00",
        "meta_object_name": "STARLINK-35871",
        "meta_object_id": "2025-268K",
        "meta_epoch": "2025-12-02T12:00:05.998752",
        "meta_mean_motion": 15.77199199,
        "meta_eccentricity": 0.0001721,
        "meta_inclination": 42.9976,
        "meta_ra_of_asc_node": 181.8883,
        "meta_arg_of_pericenter": 268.6329,
        "meta_mean_anomaly": 233.7844,
        "meta_ephemeris_type": 0,
        "meta_classification_type": "U",
        "meta_norad_cat_id": 66566,
        "meta_element_set_no": 999,
        "meta_rev_at_epoch": 302,
        "meta_bstar": -0.0094961,
        "meta_mean_motion_dot": -0.014226,
        "meta_mean_motion_ddot": 0,
        "tle_line1": "1 66566U 25268K   25336.50006943 -.01422600  00000+0 -94961-2 0  9995",
        "tle_line2": "2 66566  42.9976 181.8883 0001721 268.6329 233.7844 15.77199199  3026"
      },
      "geometry": {
        "type": "Point",
        "coordinates": [
          179.96858065292278,
          0.9424452897907488
        ]
      }
    },
    {
      "type": "Feature",
      "properties": {
        "norad_id": 66567,
        "name": "STARLINK-35825",
        "group": "last-30-days",
        "lat": 2.278190115094886,
        "lon": -178.60084876900282,
        "alt_km": 342.2434642496746,
        "timestamp": "2025-12-02T23:34:14.291742+00:00",
        "meta_object_name": "STARLINK-35825",
        "meta_object_id": "2025-268L",
        "meta_epoch": "2025-12-02T12:00:05.998752",
        "meta_mean_motion": 15.77140396,
        "meta_eccentricity": 0.0001665,
        "meta_inclination": 42.9974,
        "meta_ra_of_asc_node": 181.8832,
        "meta_arg_of_pericenter": 271.0314,
        "meta_mean_anomaly": 233.4257,
        "meta_ephemeris_type": 0,
        "meta_classification_type": "U",
        "meta_norad_cat_id": 66567,
        "meta_element_set_no": 999,
        "meta_rev_at_epoch": 302,
        "meta_bstar": -0.0093486,
        "meta_mean_motion_dot": -0.01399656,
        "meta_mean_motion_ddot": 0,
        "tle_line1": "1 66567U 25268L   25336.50006943 -.01399656  00000+0 -93486-2 0  9991",
        "tle_line2": "2 66567  42.9974 181.8832 0001665 271.0314 233.4257 15.77140396  3028"
      },
      "geometry": {
        "type": "Point",
        "coordinates": [
          -178.60084876900282,
          2.278190115094886
        ]
      }
    },
    {
      "type": "Feature",
      "properties": {
        "norad_id": 66568,
        "name": "STARLINK-35803",
        "group": "last-30-days",
        "lat": 3.5939335728493322,
        "lon": -177.18766187181862,
        "alt_km": 342.27243361193086,
        "timestamp": "2025-12-02T23:34:14.291754+00:00",
        "meta_object_name": "STARLINK-35803",
        "meta_object_id": "2025-268M",
        "meta_epoch": "2025-12-02T12:00:05.998752",
        "meta_mean_motion": 15.77074588,
        "meta_eccentricity": 0.0001536,
        "meta_inclination": 42.9971,
        "meta_ra_of_asc_node": 181.8779,
        "meta_arg_of_pericenter": 276.3634,
        "meta_mean_anomaly": 230.176,
        "meta_ephemeris_type": 0,
        "meta_classification_type": "U",
        "meta_norad_cat_id": 66568,
        "meta_element_set_no": 999,
        "meta_rev_at_epoch": 302,
        "meta_bstar": -0.0096263,
        "meta_mean_motion_dot": -0.01432596,
        "meta_mean_motion_ddot": 0,
        "tle_line1": "1 66568U 25268M   25336.50006943 -.01432596  00000+0 -96263-2 0  9999",
        "tle_line2": "2 66568  42.9971 181.8779 0001536 276.3634 230.1760 15.77074588  3028"
      },
      "geometry": {
        "type": "Point",
        "coordinates": [
          -177.18766187181862,
          3.5939335728493322
        ]
      }
    },
    {
      "type": "Feature",
      "properties": {
        "norad_id": 66569,
        "name": "STARLINK-35835",
        "group": "last-30-days",
        "lat": 4.905370769078223,
        "lon": -175.772788136883,
        "alt_km": 342.39508670229316,
        "timestamp": "2025-12-02T23:34:14.291765+00:00",
        "meta_object_name": "STARLINK-35835",
        "meta_object_id": "2025-268N",
        "meta_epoch": "2025-12-02T12:00:05.998752",
        "meta_mean_motion": 15.77083351,
        "meta_eccentricity": 0.0001709,
        "meta_inclination": 42.9973,
        "meta_ra_of_asc_node": 181.8728,
        "meta_arg_of_pericenter": 271.3874,
        "meta_mean_anomaly": 237.1131,
        "meta_ephemeris_type": 0,
        "meta_classification_type": "U",
        "meta_norad_cat_id": 66569,
        "meta_element_set_no": 999,
        "meta_rev_at_epoch": 302,
        "meta_bstar": -0.0099878,
        "meta_mean_motion_dot": -0.0148062,
        "meta_mean_motion_ddot": 0,
        "tle_line1": "1 66569U 25268N   25336.50006943 -.01480620  00000+0 -99878-2 0  9996",
        "tle_line2": "2 66569  42.9973 181.8728 0001709 271.3874 237.1131 15.77083351  3025"
      },
      "geometry": {
        "type": "Point",
        "coordinates": [
          -175.772788136883,
          4.905370769078223
        ]
      }
    },
    {
      "type": "Feature",
      "properties": {
        "norad_id": 66570,
        "name": "STARLINK-35834",
        "group": "last-30-days",
        "lat": 6.222273352073239,
        "lon": -174.3425475460872,
        "alt_km": 342.4623353302568,
        "timestamp": "2025-12-02T23:34:14.291777+00:00",
        "meta_object_name": "STARLINK-35834",
        "meta_object_id": "2025-268P",
        "meta_epoch": "2025-12-02T12:00:05.998752",
        "meta_mean_motion": 15.77033772,
        "meta_eccentricity": 0.0001528,
        "meta_inclination": 42.9973,
        "meta_ra_of_asc_node": 181.868,
        "meta_arg_of_pericenter": 272.0834,
        "meta_mean_anomaly": 238.4756,
        "meta_ephemeris_type": 0,
        "meta_classification_type": "U",
        "meta_norad_cat_id": 66570,
        "meta_element_set_no": 999,
        "meta_rev_at_epoch": 302,
        "meta_bstar": -0.010221,
        "meta_mean_motion_dot": -0.01507833,
        "meta_mean_motion_ddot": 0,
        "tle_line1": "1 66570U 25268P   25336.50006943 -.01507833  00000+0 -10221-1 0  9998",
        "tle_line2": "2 66570  42.9973 181.8680 0001528 272.0834 238.4756 15.77033772  3026"
      },
      "geometry": {
        "type": "Point",
        "coordinates": [
          -174.3425475460872,
          6.222273352073239
        ]
      }
    },
    {
      "type": "Feature",
      "properties": {
        "norad_id": 66571,
        "name": "STARLINK-35836",
        "group": "last-30-days",
        "lat": 7.520600387768299,
        "lon": -172.92167703181443,
        "alt_km": 342.60252489351296,
        "timestamp": "2025-12-02T23:34:14.291787+00:00",
        "meta_object_name": "STARLINK-35836",
        "meta_object_id": "2025-268Q",
        "meta_epoch": "2025-12-02T12:00:05.998752",
        "meta_mean_motion": 15.76992867,
        "meta_eccentricity": 0.0001513,
        "meta_inclination": 42.9978,
        "meta_ra_of_asc_node": 181.8629,
        "meta_arg_of_pericenter": 273.3855,
        "meta_mean_anomaly": 239.2267,
        "meta_ephemeris_type": 0,
        "meta_classification_type": "U",
        "meta_norad_cat_id": 66571,
        "meta_element_set_no": 999,
        "meta_rev_at_epoch": 302,
        "meta_bstar": -0.010704,
        "meta_mean_motion_dot": -0.01567528,
        "meta_mean_motion_ddot": 0,
        "tle_line1": "1 66571U 25268Q   25336.50006943 -.01567528  00000+0 -10704-1 0  9992",
        "tle_line2": "2 66571  42.9978 181.8629 0001513 273.3855 239.2267 15.76992867  3020"
      },
      "geometry": {
        "type": "Point",
        "coordinates": [
          -172.92167703181443,
          7.520600387768299
        ]
      }
    },
    {
      "type": "Feature",
      "properties": {
        "norad_id": 66572,
        "name": "STARLINK-35870",
        "group": "last-30-days",
        "lat": 8.873828520478366,
        "lon": -171.42532941720125,
        "alt_km": 342.7379866197698,
        "timestamp": "2025-12-02T23:34:14.291799+00:00",
        "meta_object_name": "STARLINK-35870",
        "meta_object_id": "2025-268R",
        "meta_epoch": "2025-12-02T12:00:05.998752",
        "meta_mean_motion": 15.7696256,
        "meta_eccentricity": 0.0001679,
        "meta_inclination": 42.9978,
        "meta_ra_of_asc_node": 181.8585,
        "meta_arg_of_pericenter": 265.2789,
        "meta_mean_anomaly": 249.3857,
        "meta_ephemeris_type": 0,
        "meta_classification_type": "U",
        "meta_norad_cat_id": 66572,
        "meta_element_set_no": 999,
        "meta_rev_at_epoch": 302,
        "meta_bstar": -0.010661,
        "meta_mean_motion_dot": -0.01560258,
        "meta_mean_motion_ddot": 0,
        "tle_line1": "1 66572U 25268R   25336.50006943 -.01560258  00000+0 -10661-1 0  9998",
        "tle_line2": "2 66572  42.9978 181.8585 0001679 265.2789 249.3857 15.76962560  3025"
      },
      "geometry": {
        "type": "Point",
        "coordinates": [
          -171.42532941720125,
          8.873828520478366
        ]
      }
    }
  ]
}